ONEWEB-0424             
1 50497U 21132AE  23274.77154715  .00000040  00000+0  67626-4 0  9993
2 50497  87.9214 172.2403 0001598  57.3540 302.7746 13.18686284 91246
ONEWEB-0426             
1 50498U 21132AF  23274.80947504  .00000091  00000+0  19925-3 0  9998
2 50498  87.9290 172.2442 0001670  90.9779 269.1545 13.18685492 91199
ONEWEB-0427             
1 50499U 21132AG  23274.76943800 -.00000101  00000+0 -28854-3 0  9994
2 50499  87.9215 172.2442 0001535  77.1366 282.9937 13.18686641 91214
ONEWEB-0429             
1 50500U 21132AH  23274.75680816  .00000013  00000+0 -28616-6 0  9991
2 50500  87.9280 172.2367 0001880  70.9651 289.1684 13.18683828 91184
ONEWEB-0430             
1 50501U 21132AJ  23274.74626052  .00000048  00000+0  88211-4 0  9995
2 50501  87.9295 172.2344 0001770  67.1261 293.0058 13.18683665 91222
ONEWEB-0432             
1 50502U 21132AK  23274.77785935  .00000000  00000+0 -32220-4 0  9993
2 50502  87.9215 172.2395 0001833  72.0068 288.1264 13.18685119 91186
ONEWEB-0440             
1 50503U 21132AL  23274.76521731  .00000065  00000+0  13278-3 0  9996
2 50503  87.9220 172.2564 0002351  88.4143 271.7259 13.18686350 91171
ONEWEB-0450             
1 50504U 21132AM  23274.75889404 -.00000007  00000+0 -50030-4 0  9996
2 50504  87.9264 172.2642 0002176  68.2573 291.8790 13.18684662 91206
